;START_OF_HEADER
;HEADER_VERSION:0.1
;FLAVOR:Griffin
;GENERATOR.NAME:Cura_SteamEngine
;GENERATOR.VERSION:5.8.1
;GENERATOR.BUILD_DATE:2024-08-28
;TARGET_MACHINE.NAME:Ultimaker S3
;EXTRUDER_TRAIN.0.INITIAL_TEMPERATURE:195
;EXTRUDER_TRAIN.0.MATERIAL.VOLUME_USED:549
;EXTRUDER_TRAIN.0.MATERIAL.GUID:506c9f0d-e3aa-4bd4-b2d2-23e2425b1aa9
;EXTRUDER_TRAIN.0.NOZZLE.DIAMETER:0.4
;EXTRUDER_TRAIN.0.NOZZLE.NAME:AA 0.4
;BUILD_PLATE.INITIAL_TEMPERATURE:60
;PRINT.TIME:2887
;PRINT.GROUPS:1
;PRINT.SIZE.MIN.X:101.449
;PRINT.SIZE.MIN.Y:81.449
;PRINT.SIZE.MIN.Z:0.2
;PRINT.SIZE.MAX.X:180
;PRINT.SIZE.MAX.Y:180
;PRINT.SIZE.MAX.Z:20.001
;SLICE_UUID:ebd2cee4-6a36-4a71-86af-ad9247f0de07
;END_OF_HEADER
;Generated with Cura_SteamEngine 5.8.1
T0
M82 ;absolute extrusion mode

G92 E0
M190 S60
M104 S195
M109 S195
G280 S1
G0 Z20.001
G1 F2700 E-6.5
;LAYER_COUNT:331
G0 F9000 X180 Y180
;LAYER:0
M106 S255
M204 S1000
M205 X20 Y20
G1 F600 Z2.2
G0 F9000 X123.367 Y105.674 Z2.2
;TYPE:SKIRT
G1 F600 Z0.2
G1 F2700 E0
G1 F432 X121.822 Y106.787 E0.02388
G1 X119.542 Y107.776 E0.05504
G1 X117.723 Y108.342 E0.07893
G1 X114.999 Y108.617 E0.11327
G1 X112.238 Y108.34 E0.14807
G1 X109.875 Y107.552 E0.1793
G1 X108.731 Y107.02 E0.19512
G1 X106.334 Y105.446 E0.23109
G1 X105.505 Y104.69 E0.24516
G1 X104.324 Y103.363 E0.26743
G1 X103.602 Y102.341 E0.28312
G1 X102.595 Y100.462 E0.30986
G1 X102.023 Y98.922 E0.33046
G1 X101.673 Y97.466 E0.34924
G1 X101.449 Y95.456 E0.3746
G1 X101.589 Y92.971 E0.40581
G1 X101.912 Y91.465 E0.42513
G1 X102.627 Y89.315 E0.45354
G1 X103.828 Y87.313 E0.48282
G1 X104.369 Y86.582 E0.49422
G1 X105.725 Y85.11 E0.51932
G1 X106.754 Y84.23 E0.5363
G1 X108.414 Y83.154 E0.56111
G1 X109.718 Y82.523 E0.57927
G1 X111.408 Y81.932 E0.60173
G1 X112.809 Y81.622 E0.61972
G1 X115.863 Y81.449 E0.65808
G1 X117.99 Y81.759 E0.68503
G1 X120.322 Y82.533 E0.71585
G1 X122.092 Y83.446 E0.74082
G1 X123.313 Y84.285 E0.7594
G1 X124.596 Y85.43 E0.78097
G1 X125.807 Y86.814 E0.80403
G1 X126.536 Y87.887 E0.8203
G1 X127.632 Y90.063 E0.85085
G1 X128.04 Y91.294 E0.86711
G1 X128.452 Y93.326 E0.89311
G1 X128.546 Y94.42 E0.90688
G1 X128.467 Y96.601 E0.93425
G1 X128.219 Y98.248 E0.95514
G1 X127.547 Y100.131 E0.98021
G1 X126.349 Y102.427 E1.01269
G1 X125.474 Y103.613 E1.03117
G1 X124.423 Y104.75 E1.05059
G1 X123.367 Y105.674 E1.06818
G0 F9000 X123.133 Y105.349
G1 F432 X121.623 Y106.437 E1.09152
G1 X119.423 Y107.394 E1.12161
G1 X117.642 Y107.948 E1.145
G1 X114.999 Y108.215 E1.17831
G1 X112.324 Y107.947 E1.21202
G1 X110.044 Y107.189 E1.24215
G1 X108.9 Y106.657 E1.25798
G1 X106.604 Y105.15 E1.29242
G1 X105.775 Y104.394 E1.30649
G1 X104.65 Y103.131 E1.3277
G1 X103.955 Y102.152 E1.34275
G1 X102.948 Y100.273 E1.36949
G1 X102.412 Y98.828 E1.38881
G1 X102.071 Y97.422 E1.40696
G1 X101.847 Y95.412 E1.43232
G1 X101.98 Y93.054 E1.46194
G1 X102.292 Y91.591 E1.4807
G1 X102.993 Y89.482 E1.50857
G1 X104.15 Y87.551 E1.5368
G1 X104.691 Y86.82 E1.5482
G1 X105.986 Y85.413 E1.57218
G1 X106.972 Y84.566 E1.58848
G1 X108.632 Y83.49 E1.61329
G1 X109.851 Y82.9 E1.63027
G1 X111.494 Y82.323 E1.65211
G1 X112.895 Y82.013 E1.6701
G1 X115.843 Y81.85 E1.70713
G1 X117.864 Y82.139 E1.73273
G1 X120.196 Y82.913 E1.76354
G1 X121.865 Y83.776 E1.78711
G1 X123.086 Y84.615 E1.80568
G1 X124.329 Y85.728 E1.82661
G1 X125.477 Y87.04 E1.84847
G1 X126.179 Y88.068 E1.86408
G1 X127.252 Y90.189 E1.89389
G1 X127.66 Y91.42 E1.91015
G1 X128.053 Y93.36 E1.93497
G1 X128.147 Y94.454 E1.94874
G1 X128.071 Y96.542 E1.97495
G1 X127.829 Y98.151 E1.99535
G1 X127.17 Y99.997 E2.01993
G1 X125.995 Y102.241 E2.0517
G1 X125.18 Y103.341 E2.06886
G1 X124.129 Y104.478 E2.08828
G1 X123.133 Y105.349 E2.10487
G0 F9000 X122.899 Y105.024
G1 F432 X121.423 Y106.087 E2.12768
G1 X119.304 Y107.012 E2.15668
G1 X117.561 Y107.554 E2.17957
G1 X114.999 Y107.813 E2.21186
G1 X112.41 Y107.554 E2.24449
G1 X110.213 Y106.826 E2.27351
G1 X109.069 Y106.294 E2.28933
G1 X106.874 Y104.854 E2.32226
G1 X106.045 Y104.098 E2.33633
G1 X104.976 Y102.899 E2.35647
G1 X104.308 Y101.963 E2.37089
G1 X103.301 Y100.084 E2.39762
G1 X102.801 Y98.733 E2.41569
G1 X102.469 Y97.378 E2.43318
G1 X102.245 Y95.368 E2.45855
G1 X102.371 Y93.137 E2.48657
G1 X102.672 Y91.717 E2.50477
G1 X103.36 Y89.647 E2.53213
G1 X104.472 Y87.789 E2.55928
G1 X105.013 Y87.058 E2.57068
G1 X106.248 Y85.716 E2.59356
G1 X107.19 Y84.902 E2.60917
G1 X108.85 Y83.826 E2.63398
G1 X109.984 Y83.277 E2.64978
G1 X111.58 Y82.714 E2.671
G1 X112.981 Y82.404 E2.68899
G1 X115.824 Y82.251 E2.7247
G1 X117.738 Y82.519 E2.74893
G1 X120.07 Y83.293 E2.77975
G1 X121.638 Y84.106 E2.80189
G1 X122.859 Y84.945 E2.82047
G1 X124.062 Y86.026 E2.84075
G1 X125.147 Y87.267 E2.86143
G1 X125.822 Y88.249 E2.87637
G1 X126.872 Y90.315 E2.90543
G1 X127.28 Y91.546 E2.9217
G1 X127.654 Y93.394 E2.94534
G1 X127.748 Y94.488 E2.95911
G1 X127.675 Y96.483 E2.98414
G1 X127.439 Y98.053 E3.00405
G1 X126.793 Y99.862 E3.02814
G1 X125.673 Y102.003 E3.05844
G1 X124.886 Y103.069 E3.07506
G1 X123.835 Y104.206 E3.09448
G1 X122.899 Y105.024 E3.11007
G0 F9000 X122.665 Y104.699
G1 F432 X121.22 Y105.74 E3.1324
G1 X119.185 Y106.63 E3.16025
G1 X117.48 Y107.16 E3.18264
G1 X114.999 Y107.411 E3.21391
G1 X112.494 Y107.16 E3.24549
G1 X110.382 Y106.463 E3.27338
G1 X109.238 Y105.931 E3.2892
G1 X107.144 Y104.558 E3.3206
G1 X106.315 Y103.802 E3.33467
G1 X105.275 Y102.633 E3.35429
G1 X104.661 Y101.774 E3.36753
G1 X103.654 Y99.895 E3.39426
G1 X103.189 Y98.637 E3.41108
G1 X102.867 Y97.334 E3.42791
G1 X102.643 Y95.324 E3.45328
G1 X102.762 Y93.219 E3.47972
G1 X103.052 Y91.843 E3.49735
G1 X103.727 Y89.812 E3.52419
G1 X104.794 Y88.027 E3.55027
G1 X105.335 Y87.296 E3.56167
G1 X106.51 Y86.019 E3.58344
G1 X107.452 Y85.205 E3.59905
G1 X109.025 Y84.186 E3.62255
G1 X110.118 Y83.654 E3.6378
G1 X111.666 Y83.105 E3.65839
G1 X113.067 Y82.795 E3.67639
G1 X115.806 Y82.652 E3.71078
G1 X117.612 Y82.899 E3.73364
G1 X119.944 Y83.673 E3.76445
G1 X121.453 Y84.461 E3.7858
G1 X122.592 Y85.243 E3.80313
G1 X123.795 Y86.324 E3.82341
G1 X124.817 Y87.494 E3.84289
G1 X125.492 Y88.476 E3.85783
G1 X126.492 Y90.441 E3.88548
G1 X126.9 Y91.672 E3.90175
G1 X127.255 Y93.428 E3.92421
G1 X127.349 Y94.522 E3.93798
G1 X127.279 Y96.423 E3.96184
G1 X127.048 Y97.957 E3.98129
G1 X126.416 Y99.728 E4.00487
G1 X125.319 Y101.817 E4.03446
G1 X124.592 Y102.797 E4.04976
G1 X123.541 Y103.934 E4.06918
G1 X122.665 Y104.699 E4.08376
G0 F9000 X122.431 Y104.374
G1 F432 X121.018 Y105.392 E4.1056
G1 X119.066 Y106.248 E4.13233
G1 X117.399 Y106.766 E4.15422
G1 X114.999 Y107.009 E4.18447
G1 X112.578 Y106.766 E4.21499
G1 X110.551 Y106.1 E4.24174
G1 X109.407 Y105.568 E4.25757
G1 X107.414 Y104.262 E4.28745
G1 X106.585 Y103.506 E4.30152
G1 X105.6 Y102.399 E4.3201
G1 X105.014 Y101.585 E4.33268
G1 X104.007 Y99.706 E4.35941
G1 X103.577 Y98.54 E4.37499
G1 X103.265 Y97.29 E4.39115
G1 X103.041 Y95.28 E4.41651
G1 X103.154 Y93.301 E4.44137
G1 X103.432 Y91.969 E4.45843
G1 X104.093 Y89.98 E4.48472
G1 X105.116 Y88.265 E4.50976
G1 X105.657 Y87.534 E4.52117
G1 X106.772 Y86.322 E4.54182
G1 X107.714 Y85.508 E4.55743
G1 X109.2 Y84.546 E4.57963
G1 X110.293 Y84.014 E4.59487
G1 X111.799 Y83.482 E4.6149
G1 X113.088 Y83.194 E4.63147
G1 X115.789 Y83.053 E4.66538
G1 X117.486 Y83.279 E4.68685
G1 X119.818 Y84.053 E4.71767
G1 X121.227 Y84.791 E4.73761
G1 X122.325 Y85.541 E4.75429
G1 X123.528 Y86.622 E4.77457
G1 X124.487 Y87.721 E4.79286
G1 X125.162 Y88.703 E4.8078
G1 X126.112 Y90.567 E4.83404
G1 X126.52 Y91.798 E4.8503
G1 X126.856 Y93.462 E4.87159
G1 X126.95 Y94.556 E4.88536
G1 X126.883 Y96.364 E4.90805
G1 X126.658 Y97.86 E4.92702
G1 X126.039 Y99.594 E4.95011
G1 X124.997 Y101.579 E4.97822
G1 X124.298 Y102.525 E4.99297
G1 X123.247 Y103.662 E5.01239
G1 X122.431 Y104.374 E5.02597
G0 F9000 X122.197 Y104.049
G1 F432 X120.816 Y105.044 E5.04732
G1 X118.947 Y105.866 E5.07292
G1 X117.318 Y106.372 E5.09431
G1 X114.999 Y106.607 E5.12354
G1 X112.66 Y106.372 E5.15302
G1 X110.72 Y105.737 E5.17862
G1 X109.576 Y105.205 E5.19444
G1 X107.684 Y103.966 E5.2228
G1 X106.855 Y103.21 E5.23687
G1 X105.925 Y102.165 E5.25442
G1 X105.339 Y101.351 E5.26699
G1 X104.382 Y99.567 E5.29238
G1 X103.965 Y98.442 E5.30743
G1 X103.663 Y97.246 E5.3229
G1 X103.439 Y95.236 E5.34826
G1 X103.546 Y93.383 E5.37153
G1 X103.824 Y92.051 E5.3886
G1 X104.457 Y90.152 E5.4137
G1 X105.438 Y88.503 E5.43776
G1 X105.979 Y87.772 E5.44917
G1 X107.034 Y86.625 E5.46871
G1 X107.976 Y85.811 E5.48432
G1 X109.375 Y84.906 E5.50522
G1 X110.468 Y84.374 E5.52046
G1 X111.888 Y83.872 E5.53935
G1 X113.11 Y83.593 E5.55507
G1 X115.736 Y83.45 E5.58805
G1 X117.397 Y83.671 E5.60906
G1 X119.692 Y84.433 E5.63938
G1 X121.002 Y85.122 E5.65795
G1 X122.058 Y85.839 E5.67395
G1 X123.227 Y86.886 E5.69363
G1 X124.157 Y87.948 E5.71134
G1 X124.832 Y88.93 E5.72628
G1 X125.732 Y90.693 E5.7511
G1 X126.14 Y91.924 E5.76736
G1 X126.457 Y93.496 E5.78747
G1 X126.551 Y94.59 E5.80124
G1 X126.487 Y96.305 E5.82277
G1 X126.268 Y97.762 E5.84124
G1 X125.662 Y99.459 E5.86384
G1 X124.643 Y101.392 E5.89124
G1 X124.004 Y102.254 E5.9047
G1 X122.984 Y103.361 E5.92357
G1 X122.197 Y104.049 E5.93668
G0 F9000 X121.963 Y103.724
G1 F432 X120.614 Y104.696 E5.95753
G1 X118.828 Y105.484 E5.98201
G1 X117.237 Y105.978 E6.00291
G1 X114.999 Y106.205 E6.03112
G1 X112.742 Y105.978 E6.05956
G1 X110.889 Y105.374 E6.084
G1 X109.745 Y104.842 E6.09982
G1 X107.954 Y103.67 E6.12667
G1 X107.125 Y102.914 E6.14074
G1 X106.25 Y101.931 E6.15724
G1 X105.664 Y101.117 E6.16982
G1 X104.757 Y99.427 E6.19387
G1 X104.353 Y98.343 E6.20838
G1 X104.061 Y97.202 E6.22315
G1 X103.837 Y95.192 E6.24851
G1 X103.938 Y93.465 E6.2702
G1 X104.216 Y92.133 E6.28727
G1 X104.821 Y90.323 E6.3112
G1 X105.782 Y88.708 E6.33477
G1 X106.3 Y88.011 E6.34566
G1 X107.296 Y86.928 E6.36411
G1 X108.238 Y86.114 E6.37972
G1 X109.55 Y85.266 E6.39931
G1 X110.643 Y84.734 E6.41455
G1 X111.977 Y84.262 E6.4323
G1 X113.199 Y83.983 E6.44802
G1 X115.72 Y83.851 E6.47968
G1 X117.304 Y84.062 E6.49971
G1 X119.506 Y84.787 E6.52879
G1 X120.778 Y85.454 E6.5468
G1 X121.791 Y86.137 E6.56212
G1 X122.96 Y87.184 E6.5818
G1 X123.827 Y88.175 E6.59831
G1 X124.502 Y89.157 E6.61325
G1 X125.352 Y90.819 E6.63666
G1 X125.76 Y92.05 E6.65293
G1 X126.058 Y93.53 E6.67186
G1 X126.152 Y94.624 E6.68563
G1 X126.091 Y96.246 E6.70598
G1 X125.878 Y97.664 E6.72397
G1 X125.285 Y99.324 E6.74607
G1 X124.321 Y101.154 E6.77201
G1 X123.709 Y101.983 E6.78493
G1 X122.72 Y103.06 E6.80327
G1 X121.963 Y103.724 E6.8159
G0 F9000 X121.729 Y103.399
G1 F432 X120.413 Y104.347 E6.83624
G1 X118.666 Y105.118 E6.86018
G1 X117.158 Y105.584 E6.87997
G1 X114.999 Y105.803 E6.90719
G1 X112.827 Y105.584 E6.93456
G1 X111.058 Y105.011 E6.95788
G1 X109.914 Y104.479 E6.9737
G1 X108.224 Y103.374 E6.99903
G1 X107.395 Y102.618 E7.0131
G1 X106.575 Y101.697 E7.02856
G1 X105.989 Y100.883 E7.04114
G1 X105.132 Y99.287 E7.06385
G1 X104.741 Y98.244 E7.07782
G1 X104.449 Y97.103 E7.09259
G1 X104.236 Y95.215 E7.11642
G1 X104.33 Y93.547 E7.13737
G1 X104.608 Y92.215 E7.15443
G1 X105.185 Y90.494 E7.1772
G1 X106.126 Y88.913 E7.20027
G1 X106.595 Y88.281 E7.21014
G1 X107.558 Y87.231 E7.228
G1 X108.5 Y86.417 E7.24362
G1 X109.726 Y85.625 E7.26192
G1 X110.777 Y85.111 E7.27659
G1 X112.066 Y84.652 E7.29375
G1 X113.288 Y84.373 E7.30947
G1 X115.704 Y84.252 E7.33981
G1 X117.213 Y84.453 E7.3589
G1 X119.321 Y85.141 E7.3867
G1 X120.554 Y85.786 E7.40415
G1 X121.567 Y86.469 E7.41947
G1 X122.692 Y87.481 E7.43845
G1 X123.497 Y88.402 E7.45379
G1 X124.172 Y89.384 E7.46873
G1 X124.972 Y90.945 E7.49073
G1 X125.38 Y92.176 E7.50699
G1 X125.659 Y93.564 E7.52475
G1 X125.753 Y94.658 E7.53852
G1 X125.695 Y96.187 E7.55771
G1 X125.488 Y97.566 E7.57519
G1 X124.908 Y99.189 E7.59681
G1 X123.999 Y100.916 E7.62128
G1 X123.387 Y101.745 E7.6342
G1 X122.456 Y102.76 E7.65147
G1 X121.729 Y103.399 E7.66361
G0 F9000 X121.495 Y103.074
G1 F432 X120.212 Y103.998 E7.68344
G1 X118.504 Y104.752 E7.70685
G1 X117.079 Y105.19 E7.72555
G1 X114.999 Y105.401 E7.75177
G1 X112.911 Y105.19 E7.77808
G1 X111.227 Y104.648 E7.80027
G1 X110.083 Y104.116 E7.81609
G1 X108.494 Y103.078 E7.83989
G1 X107.665 Y102.322 E7.85396
G1 X106.9 Y101.463 E7.86839
G1 X106.314 Y100.649 E7.88096
G1 X105.506 Y99.146 E7.90236
G1 X105.129 Y98.145 E7.91578
G1 X104.837 Y97.004 E7.93055
G1 X104.635 Y95.237 E7.95285
G1 X104.722 Y93.629 E7.97304
G1 X105 Y92.297 E7.99011
G1 X105.55 Y90.664 E8.01172
G1 X106.47 Y89.118 E8.03428
G1 X106.89 Y88.551 E8.04312
G1 X107.82 Y87.534 E8.06041
G1 X108.762 Y86.72 E8.07602
G1 X109.902 Y85.984 E8.09304
G1 X110.911 Y85.488 E8.10714
G1 X112.2 Y85.029 E8.12429
G1 X113.376 Y84.763 E8.13941
G1 X115.651 Y84.649 E8.16798
G1 X117.125 Y84.845 E8.18663
G1 X119.136 Y85.496 E8.21313
G1 X120.33 Y86.118 E8.23002
G1 X121.343 Y86.801 E8.24534
G1 X122.391 Y87.745 E8.26303
G1 X123.167 Y88.629 E8.27778
G1 X123.842 Y89.611 E8.29272
G1 X124.592 Y91.071 E8.3133
G1 X125 Y92.302 E8.32957
G1 X125.26 Y93.598 E8.34614
G1 X125.354 Y94.692 E8.35991
G1 X125.299 Y96.128 E8.37793
G1 X125.098 Y97.468 E8.39493
G1 X124.531 Y99.054 E8.41605
G1 X123.677 Y100.678 E8.43906
G1 X123.065 Y101.507 E8.45198
G1 X122.191 Y102.46 E8.46819
G1 X121.495 Y103.074 E8.47983
G0 F9000 X121.261 Y102.749
G1 F432 X120.011 Y103.649 E8.49915
G1 X118.342 Y104.386 E8.52203
G1 X117.002 Y104.796 E8.5396
G1 X114.999 Y104.999 E8.56485
G1 X112.994 Y104.796 E8.59012
G1 X111.396 Y104.285 E8.61116
G1 X110.252 Y103.753 E8.62698
G1 X108.764 Y102.782 E8.64926
G1 X107.935 Y102.026 E8.66333
G1 X107.225 Y101.229 E8.67672
G1 X106.639 Y100.415 E8.6893
G1 X105.88 Y99.004 E8.70939
G1 X105.517 Y98.046 E8.72224
G1 X105.225 Y96.905 E8.73701
G1 X105.034 Y95.258 E8.7578
G1 X105.114 Y93.711 E8.77722
G1 X105.392 Y92.379 E8.79429
G1 X105.915 Y90.834 E8.81474
G1 X106.814 Y89.323 E8.83679
G1 X107.211 Y88.79 E8.84513
G1 X108.082 Y87.837 E8.86132
G1 X109.024 Y87.023 E8.87693
G1 X110.079 Y86.343 E8.89267
G1 X111.046 Y85.865 E8.9062
G1 X112.29 Y85.419 E8.92277
G1 X113.396 Y85.163 E8.937
G1 X115.634 Y85.051 E8.96511
G1 X117.037 Y85.237 E8.98285
G1 X119.013 Y85.877 E9.0089
G1 X120.106 Y86.45 E9.02438
G1 X121.119 Y87.133 E9.0397
G1 X122.091 Y88.009 E9.05611
G1 X122.837 Y88.856 E9.07026
G1 X123.512 Y89.838 E9.0852
G1 X124.212 Y91.197 E9.10437
G1 X124.62 Y92.428 E9.12064
G1 X124.861 Y93.632 E9.13604
G1 X124.955 Y94.726 E9.1498
G1 X124.903 Y96.069 E9.16666
G1 X124.708 Y97.37 E9.18316
G1 X124.154 Y98.919 E9.20379
G1 X123.355 Y100.44 E9.22533
G1 X122.743 Y101.269 E9.23825
G1 X121.897 Y102.189 E9.25393
G1 X121.261 Y102.749 E9.26455
G0 F9000 X121.027 Y102.424
G1 F432 X119.81 Y103.3 E9.28336
G1 X118.225 Y104.003 E9.3051
G1 X116.92 Y104.402 E9.32222
G1 X114.999 Y104.597 E9.34643
G1 X113.075 Y104.402 E9.37068
G1 X111.565 Y103.922 E9.39055
G1 X110.421 Y103.39 E9.40637
G1 X109.034 Y102.486 E9.42713
G1 X108.205 Y101.73 E9.4412
G1 X107.55 Y100.995 E9.45355
G1 X106.964 Y100.181 E9.46613
G1 X106.254 Y98.861 E9.48492
G1 X105.905 Y97.947 E9.49719
G1 X105.613 Y96.806 E9.51196
G1 X105.434 Y95.277 E9.53127
G1 X105.506 Y93.793 E9.5499
G1 X105.784 Y92.461 E9.56696
G1 X106.281 Y91.001 E9.5863
G1 X107.135 Y89.562 E9.60729
G1 X107.532 Y89.029 E9.61562
G1 X108.344 Y88.14 E9.63072
G1 X109.286 Y87.326 E9.64633
G1 X110.295 Y86.68 E9.66136
G1 X111.182 Y86.241 E9.67377
G1 X112.38 Y85.809 E9.68974
G1 X113.486 Y85.553 E9.70398
G1 X115.581 Y85.448 E9.73028
G1 X116.984 Y85.634 E9.74803
G1 X118.828 Y86.232 E9.77234
G1 X119.882 Y86.782 E9.78725
G1 X120.895 Y87.465 E9.80257
G1 X121.791 Y88.274 E9.81771
G1 X122.508 Y89.084 E9.83127
G1 X123.156 Y90.021 E9.84556
G1 X123.856 Y91.38 E9.86473
G1 X124.228 Y92.507 E9.87961
G1 X124.462 Y93.666 E9.89444
G1 X124.556 Y94.76 E9.90821
G1 X124.507 Y96.01 E9.9239
G1 X124.318 Y97.272 E9.9399
G1 X123.777 Y98.784 E9.96004
G1 X123.033 Y100.202 E9.98012
G1 X122.421 Y101.031 E9.99304
G1 X121.632 Y101.889 E10.00766
G1 X121.027 Y102.424 E10.01779
G0 F9000 X120.762 Y102.124
G1 F432 X119.609 Y102.952 E10.03559
G1 X118.108 Y103.62 E10.05619
G1 X116.838 Y104.008 E10.07284
G1 X114.999 Y104.195 E10.09602
G1 X113.159 Y104.008 E10.11922
G1 X111.734 Y103.559 E10.13795
G1 X110.59 Y103.027 E10.15377
G1 X109.304 Y102.19 E10.17302
G1 X108.475 Y101.434 E10.18709
G1 X107.875 Y100.761 E10.19839
G1 X107.289 Y99.947 E10.21097
G1 X106.628 Y98.718 E10.22847
G1 X106.279 Y97.804 E10.24074
G1 X106.01 Y96.758 E10.25428
G1 X105.834 Y95.296 E10.27275
G1 X105.906 Y93.812 E10.29138
G1 X106.163 Y92.59 E10.30704
G1 X106.647 Y91.168 E10.32588
G1 X107.456 Y89.801 E10.3458
G1 X107.853 Y89.268 E10.35413
G1 X108.606 Y88.443 E10.36814
G1 X109.548 Y87.629 E10.38375
G1 X110.473 Y87.038 E10.39752
G1 X111.319 Y86.617 E10.40937
G1 X112.47 Y86.199 E10.42472
G1 X113.576 Y85.943 E10.43896
G1 X115.528 Y85.845 E10.46347
G1 X116.931 Y86.031 E10.48122
G1 X118.644 Y86.587 E10.5038
G1 X119.658 Y87.114 E10.51813
G1 X120.671 Y87.797 E10.53346
G1 X121.522 Y88.57 E10.54787
G1 X122.18 Y89.312 E10.56031
G1 X122.8 Y90.204 E10.57393
G1 X123.5 Y91.563 E10.5931
G1 X123.836 Y92.587 E10.60662
G1 X124.063 Y93.7 E10.62086
G1 X124.157 Y94.794 E10.63463
G1 X124.111 Y95.951 E10.64915
G1 X123.928 Y97.174 E10.66466
G1 X123.4 Y98.649 E10.68431
G1 X122.711 Y99.964 E10.70292
G1 X122.099 Y100.793 E10.71585
G1 X121.367 Y101.589 E10.72941
G1 X120.762 Y102.124 E10.73953
G0 F9000 X120.497 Y101.824
G1 F432 X119.408 Y102.604 E10.75633
G1 X117.991 Y103.237 E10.77579
G1 X116.757 Y103.614 E10.79198
G1 X114.999 Y103.793 E10.81414
G1 X113.242 Y103.614 E10.83628
G1 X111.854 Y103.177 E10.85453
G1 X110.76 Y102.665 E10.86968
G1 X109.574 Y101.894 E10.88742
G1 X108.745 Y101.138 E10.90149
G1 X108.174 Y100.495 E10.91227
G1 X107.614 Y99.714 E10.92432
G1 X107.002 Y98.575 E10.94054
G1 X106.653 Y97.661 E10.95281
G1 X106.407 Y96.709 E10.96514
G1 X106.234 Y95.315 E10.98275
G1 X106.306 Y93.831 E11.00138
G1 X106.542 Y92.719 E11.01564
G1 X107.014 Y91.332 E11.03401
G1 X107.777 Y90.04 E11.05283
G1 X108.174 Y89.507 E11.06116
G1 X108.868 Y88.745 E11.07409
G1 X109.764 Y87.966 E11.08898
G1 X110.652 Y87.396 E11.10221
G1 X111.456 Y86.993 E11.11349
G1 X112.56 Y86.589 E11.12823
G1 X113.666 Y86.333 E11.14247
G1 X115.475 Y86.242 E11.16518
G1 X116.878 Y86.428 E11.18293
G1 X118.46 Y86.942 E11.20379
G1 X119.434 Y87.446 E11.21754
G1 X120.447 Y88.129 E11.23286
G1 X121.252 Y88.865 E11.24654
G1 X121.852 Y89.542 E11.25789
G1 X122.444 Y90.387 E11.27082
G1 X123.144 Y91.746 E11.28999
G1 X123.444 Y92.668 E11.30215
G1 X123.664 Y93.734 E11.3158
G1 X123.758 Y94.828 E11.32957
G1 X123.715 Y95.892 E11.34293
G1 X123.538 Y97.076 E11.35794
G1 X123.023 Y98.514 E11.37709
G1 X122.389 Y99.726 E11.39425
G1 X121.777 Y100.555 E11.40717
G1 X121.102 Y101.289 E11.41967
G1 X120.497 Y101.824 E11.4298
G0 F9000 X120.232 Y101.524
G1 F432 X119.208 Y102.255 E11.44558
G1 X117.874 Y102.854 E11.46392
G1 X116.676 Y103.22 E11.47963
G1 X114.999 Y103.391 E11.50077
G1 X113.325 Y103.22 E11.52187
G1 X111.974 Y102.795 E11.53963
G1 X110.977 Y102.329 E11.55343
G1 X109.844 Y101.598 E11.57034
G1 X109.015 Y100.842 E11.58441
G1 X108.474 Y100.23 E11.59465
G1 X107.94 Y99.482 E11.60618
G1 X107.375 Y98.431 E11.62114
G1 X107.04 Y97.56 E11.63284
G1 X106.804 Y96.658 E11.64454
G1 X106.634 Y95.333 E11.66129
G1 X106.698 Y93.913 E11.67911
G1 X106.921 Y92.848 E11.69276
G1 X107.38 Y91.5 E11.71062
G1 X108.098 Y90.279 E11.72838
G1 X108.495 Y89.746 E11.73671
G1 X109.131 Y89.046 E11.74857
G1 X109.98 Y88.303 E11.76272
G1 X110.868 Y87.733 E11.77595
G1 X111.594 Y87.368 E11.78614
G1 X112.65 Y86.979 E11.80026
G1 X113.756 Y86.723 E11.81449
G1 X115.422 Y86.639 E11.83541
G1 X116.825 Y86.825 E11.85316
G1 X118.277 Y87.298 E11.87231
G1 X119.212 Y87.779 E11.8855
G1 X120.177 Y88.424 E11.90005
G1 X120.982 Y89.16 E11.91373
G1 X121.525 Y89.773 E11.924
G1 X122.088 Y90.57 E11.93624
G1 X122.788 Y91.929 E11.95541
G1 X123.052 Y92.75 E11.96622
G1 X123.265 Y93.768 E11.97926
G1 X123.359 Y94.862 E11.99303
G1 X123.319 Y95.833 E12.00522
G1 X123.148 Y96.979 E12.01975
G1 X122.668 Y98.33 E12.03773
G1 X122.067 Y99.488 E12.05409
G1 X121.455 Y100.317 E12.06701
G1 X120.837 Y100.989 E12.07846
G1 X120.232 Y101.524 E12.08859
G0 F9000 X119.967 Y101.224
G1 F432 X119.01 Y101.905 E12.10332
G1 X117.757 Y102.471 E12.12056
G1 X116.595 Y102.826 E12.1358
G1 X114.999 Y102.989 E12.15592
G1 X113.406 Y102.826 E12.176
G1 X112.142 Y102.432 E12.1926
G1 X111.192 Y101.992 E12.20573
G1 X110.113 Y101.302 E12.22179
G1 X109.314 Y100.576 E12.23533
G1 X108.8 Y99.998 E12.24503
G1 X108.266 Y99.25 E12.25656
G1 X107.748 Y98.287 E12.27027
G1 X107.427 Y97.458 E12.28142
G1 X107.201 Y96.605 E12.29248
G1 X107.034 Y95.35 E12.30836
G1 X107.09 Y93.995 E12.32537
G1 X107.313 Y92.93 E12.33901
G1 X107.745 Y91.668 E12.35574
G1 X108.419 Y90.518 E12.37245
G1 X108.816 Y89.985 E12.38079
G1 X109.396 Y89.346 E12.39161
G1 X110.196 Y88.64 E12.40499
G1 X111.084 Y88.07 E12.41822
G1 X111.733 Y87.743 E12.42734
G1 X112.74 Y87.369 E12.44081
G1 X113.846 Y87.113 E12.45504
G1 X115.369 Y87.036 E12.47417
G1 X116.772 Y87.222 E12.49192
G1 X118.095 Y87.654 E12.50937
G1 X118.991 Y88.113 E12.52199
G1 X119.908 Y88.72 E12.53578
G1 X120.683 Y89.426 E12.54893
G1 X121.198 Y90.004 E12.55864
G1 X121.761 Y90.801 E12.57088
G1 X122.407 Y92.051 E12.58852
G1 X122.671 Y92.872 E12.59934
G1 X122.867 Y93.803 E12.61127
G1 X122.959 Y94.846 E12.6244
G1 X122.923 Y95.774 E12.63604
G1 X122.757 Y96.885 E12.65013
G1 X122.312 Y98.147 E12.66691
G1 X121.745 Y99.25 E12.68246
G1 X121.133 Y100.079 E12.69539
G1 X120.572 Y100.689 E12.70578
G1 X119.967 Y101.224 E12.71591
G0 F9000 X119.735 Y100.898
G1 F432 X118.812 Y101.555 E12.73011
G1 X117.592 Y102.106 E12.7469
G1 X116.515 Y102.432 E12.76101
G1 X114.999 Y102.587 E12.78012
G1 X113.485 Y102.432 E12.79921
G1 X112.309 Y102.069 E12.81464
G1 X111.406 Y101.654 E12.8271
G1 X110.381 Y101.005 E12.84232
G1 X109.612 Y100.309 E12.85533
G1 X109.126 Y99.766 E12.86446
G1 X108.592 Y99.018 E12.87599
G1 X108.101 Y98.099 E12.88906
G1 X107.814 Y97.356 E12.89904
G1 X107.588 Y96.503 E12.91011
G1 X107.434 Y95.365 E12.92451
G1 X107.482 Y94.077 E12.94067
G1 X107.705 Y93.012 E12.95432
G1 X108.11 Y91.836 E12.96992
G1 X108.74 Y90.757 E12.98559
G1 X109.137 Y90.224 E12.99392
G1 X109.692 Y89.615 E13.00425
G1 X110.413 Y88.976 E13.01633
G1 X111.265 Y88.427 E13.02904
G1 X111.873 Y88.118 E13.0376
G1 X112.83 Y87.759 E13.05041
G1 X113.936 Y87.503 E13.06465
G1 X115.316 Y87.433 E13.08198
G1 X116.719 Y87.619 E13.09973
G1 X117.913 Y88.01 E13.11548
G1 X118.772 Y88.448 E13.12757
G1 X119.639 Y89.016 E13.14057
G1 X120.385 Y89.693 E13.15321
G1 X120.871 Y90.235 E13.16233
G1 X121.434 Y91.032 E13.17457
G1 X122.026 Y92.173 E13.19069
G1 X122.29 Y92.994 E13.20151
G1 X122.469 Y93.839 E13.21234
G1 X122.559 Y94.832 E13.22484
G1 X122.527 Y95.715 E13.23592
G1 X122.366 Y96.793 E13.24959
G1 X121.955 Y97.966 E13.26518
G1 X121.423 Y99.012 E13.27989
G1 X120.811 Y99.841 E13.29282
G1 X120.306 Y100.39 E13.30217
G1 X119.735 Y100.898 E13.31175
G0 F9000 X119.271 Y100.246
G1 F432 X118.412 Y100.858 E13.32498
G1 X117.36 Y101.34 E13.33949
G1 X116.357 Y101.644 E13.35263
G1 X114.999 Y101.783 E13.36975
G1 X113.642 Y101.644 E13.38686
G1 X112.639 Y101.34 E13.4
G1 X111.832 Y100.977 E13.4111
G1 X110.864 Y100.371 E13.42542
G1 X110.205 Y99.772 E13.43659
G1 X109.778 Y99.302 E13.44455
G1 X109.244 Y98.554 E13.45608
G1 X108.846 Y97.806 E13.4667
G1 X108.587 Y97.15 E13.47555
G1 X108.371 Y96.344 E13.48601
G1 X108.234 Y95.391 E13.49809
G1 X108.274 Y94.172 E13.51338
G1 X108.475 Y93.225 E13.52552
G1 X108.841 Y92.17 E13.53952
G1 X109.382 Y91.235 E13.55307
G1 X109.779 Y90.702 E13.56141
G1 X110.228 Y90.209 E13.56977
G1 X110.848 Y89.647 E13.58026
G1 X111.628 Y89.14 E13.59193
G1 X112.196 Y88.849 E13.59993
G1 X113.01 Y88.539 E13.61085
G1 X114.116 Y88.283 E13.62509
G1 X115.211 Y88.227 E13.63884
G1 X116.542 Y88.403 E13.65568
G1 X117.609 Y88.748 E13.66974
G1 X118.37 Y89.139 E13.68047
G1 X119.151 Y89.647 E13.69215
G1 X119.792 Y90.23 E13.70302
G1 X120.22 Y90.701 E13.711
G1 X120.727 Y91.406 E13.72189
G1 X121.264 Y92.417 E13.73624
G1 X121.528 Y93.238 E13.74706
G1 X121.673 Y93.914 E13.75573
G1 X121.759 Y94.806 E13.76697
G1 X121.731 Y95.643 E13.77747
G1 X121.586 Y96.601 E13.78962
G1 X121.24 Y97.608 E13.80297
G1 X120.778 Y98.539 E13.81601
G1 X120.22 Y99.302 E13.82786
G1 X119.771 Y99.795 E13.83622
G1 X119.271 Y100.246 E13.84467
G0 F9000 X119.503 Y100.572
G1 F432 X118.611 Y101.207 E13.8584
G1 X117.476 Y101.723 E13.87403
G1 X116.436 Y102.038 E13.88766
G1 X114.999 Y102.185 E13.90577
G1 X113.562 Y102.038 E13.92389
G1 X112.475 Y101.705 E13.93815
G1 X111.62 Y101.316 E13.94993
G1 X110.595 Y100.667 E13.96514
G1 X109.909 Y100.041 E13.97679
G1 X109.452 Y99.534 E13.98534
G1 X108.918 Y98.786 E13.99687
G1 X108.474 Y97.953 E14.00871
G1 X108.201 Y97.254 E14.01812
G1 X107.975 Y96.401 E14.02918
G1 X107.834 Y95.378 E14.04213
G1 X107.874 Y94.159 E14.05743
G1 X108.097 Y93.094 E14.07107
G1 X108.475 Y92.004 E14.08554
G1 X109.061 Y90.996 E14.10016
G1 X109.458 Y90.463 E14.1085
G1 X109.959 Y89.913 E14.11783
G1 X110.63 Y89.312 E14.12912
G1 X111.446 Y88.784 E14.14131
G1 X112.054 Y88.475 E14.14986
G1 X112.92 Y88.149 E14.16147
G1 X114.026 Y87.893 E14.17571
G1 X115.263 Y87.83 E14.19124
G1 X116.63 Y88.011 E14.20853
G1 X117.732 Y88.367 E14.22305
G1 X118.553 Y88.783 E14.23459
G1 X119.42 Y89.351 E14.24759
G1 X120.088 Y89.961 E14.25894
G1 X120.545 Y90.467 E14.26749
G1 X121.08 Y91.218 E14.27905
G1 X121.645 Y92.295 E14.2943
G1 X121.909 Y93.116 E14.30512
G1 X122.071 Y93.876 E14.31486
G1 X122.159 Y94.819 E14.32674
G1 X122.131 Y95.656 E14.33724
G1 X121.975 Y96.698 E14.35045
G1 X121.598 Y97.786 E14.36489
G1 X121.101 Y98.775 E14.37877
G1 X120.516 Y99.571 E14.39116
G1 X120.039 Y100.092 E14.40002
G1 X119.503 Y100.572 E14.40904
;MESH:loveLikeYou.stl
G0 F9000 X114.996 Y101.38
M104 S185.9
;TYPE:WALL-OUTER
G1 F515.9 X116.235 Y101.258 E14.42364